{
  "type": "FeatureCollection",
  "features": [
    {
      "type": "Feature",
      "properties": {
        "norad_id": 35476,
        "name": "COSMOS 2251 DEB",
        "group": "cosmos-2251-debris",
        "lat": -21.832388143540022,
        "lon": 62.478784026805585,
        "alt_km": 645.445917704561,
        "timestamp": "2025-12-08T13:49:32.190492+00:00",
        "meta_object_name": "COSMOS 2251 DEB",
        "meta_object_id": "1993-036ALW",
        "meta_epoch": "2025-12-08T05:55:59.562624",
        "meta_mean_motion": 14.75522969,
        "meta_eccentricity": 0.00174085,
        "meta_inclination": 73.978,
        "meta_ra_of_asc_node": 69.7346,
        "meta_arg_of_pericenter": 53.8643,
        "meta_mean_anomaly": 337.5851,
        "meta_ephemeris_type": 0,
        "meta_classification_type": "U",
        "meta_norad_cat_id": 35476,
        "meta_element_set_no": 999,
        "meta_rev_at_epoch": 87821,
        "meta_bstar": 0.0020430568,
        "meta_mean_motion_dot": 0.00013943,
        "meta_mean_motion_ddot": 0,
        "tle_line1": "1 35476U 93036ALW 25342.24721716  .00013943  00000+0  20431-2 0  9993",
        "tle_line2": "2 35476  73.9780  69.7346 0017408  53.8643 337.5851 14.75522969878213"
      },
      "geometry": {
        "type": "Point",
        "coordinates": [
          62.478784026805585,
          -21.832388143540022
        ]
      }
    },
    {
      "type": "Feature",
      "properties": {
        "norad_id": 35580,
        "name": "COSMOS 2251 DEB",
        "group": "cosmos-2251-debris",
        "lat": 10.66733051295412,
        "lon": -171.07913765537452,
        "alt_km": 1157.9347647516306,
        "timestamp": "2025-12-08T13:49:32.190503+00:00",
        "meta_object_name": "COSMOS 2251 DEB",
        "meta_object_id": "1993-036ALX",
        "meta_epoch": "2025-12-06T21:51:49.269024",
        "meta_mean_motion": 13.83821036,
        "meta_eccentricity": 0.02818687,
        "meta_inclination": 73.9,
        "meta_ra_of_asc_node": 188.633,
        "meta_arg_of_pericenter": 195.0077,
        "meta_mean_anomaly": 164.256,
        "meta_ephemeris_type": 0,
        "meta_classification_type": "U",
        "meta_norad_cat_id": 35580,
        "meta_element_set_no": 999,
        "meta_rev_at_epoch": 62176,
        "meta_bstar": 0.0026984958,
        "meta_mean_motion_dot": 4.042e-05,
        "meta_mean_motion_ddot": 0,
        "tle_line1": "1 35580U 93036ALX 25340.91098691  .00004042  00000+0  26985-2 0  9990",
        "tle_line2": "2 35580  73.9000 188.6330 0281868 195.0077 164.2560 13.83821036621764"
      },
      "geometry": {
        "type": "Point",
        "coordinates": [
          -171.07913765537452,
          10.66733051295412
        ]
      }
    },
    {
      "type": "Feature",
      "properties": {
        "norad_id": 35583,
        "name": "COSMOS 2251 DEB",
        "group": "cosmos-2251-debris",
        "lat": 47.17058124729705,
        "lon": 20.633196081184778,
        "alt_km": 1153.9612840660802,
        "timestamp": "2025-12-08T13:49:32.190513+00:00",
        "meta_object_name": "COSMOS 2251 DEB",
        "meta_object_id": "1993-036AMA",
        "meta_epoch": "2025-12-07T08:48:07.708896",
        "meta_mean_motion": 13.55322681,
        "meta_eccentricity": 0.03856923,
        "meta_inclination": 73.9176,
        "meta_ra_of_asc_node": 220.7241,
        "meta_arg_of_pericenter": 246.0627,
        "meta_mean_anomaly": 109.9644,
        "meta_ephemeris_type": 0,
        "meta_classification_type": "U",
        "meta_norad_cat_id": 35583,
        "meta_element_set_no": 999,
        "meta_rev_at_epoch": 82339,
        "meta_bstar": 0.00088237317,
        "meta_mean_motion_dot": 9.6e-06,
        "meta_mean_motion_ddot": 0,
        "tle_line1": "1 35583U 93036AMA 25341.36675589  .00000960  00000+0  88237-3 0  9994",
        "tle_line2": "2 35583  73.9176 220.7241 0385692 246.0627 109.9644 13.55322681823391"
      },
      "geometry": {
        "type": "Point",
        "coordinates": [
          20.633196081184778,
          47.17058124729705
        ]
      }
    },
    {
      "type": "Feature",
      "properties": {
        "norad_id": 35585,
        "name": "COSMOS 2251 DEB",
        "group": "cosmos-2251-debris",
        "lat": 30.80042176428901,
        "lon": 165.50096791318126,
        "alt_km": 1090.0439082970097,
        "timestamp": "2025-12-08T13:49:32.190524+00:00",
        "meta_object_name": "COSMOS 2251 DEB",
        "meta_object_id": "1993-036AMC",
        "meta_epoch": "2025-12-04T07:54:11.347200",
        "meta_mean_motion": 13.75209322,
        "meta_eccentricity": 0.0310609,
        "meta_inclination": 73.9717,
        "meta_ra_of_asc_node": 2.4547,
        "meta_arg_of_pericenter": 276.3473,
        "meta_mean_anomaly": 97.5406,
        "meta_ephemeris_type": 0,
        "meta_classification_type": "U",
        "meta_norad_cat_id": 35585,
        "meta_element_set_no": 999,
        "meta_rev_at_epoch": 63948,
        "meta_bstar": 0.0020064,
        "meta_mean_motion_dot": 2.707e-05,
        "meta_mean_motion_ddot": 0,
        "tle_line1": "1 35585U 93036AMC 25338.32929800  .00002707  00000+0  20064-2 0  9990",
        "tle_line2": "2 35585  73.9717   2.4547 0310609 276.3473  97.5406 13.75209322639480"
      },
      "geometry": {
        "type": "Point",
        "coordinates": [
          165.50096791318126,
          30.80042176428901
        ]
      }
    },
    {
      "type": "Feature",
      "properties": {
        "norad_id": 35586,
        "name": "COSMOS 2251 DEB",
        "group": "cosmos-2251-debris",
        "lat": -29.7626960831974,
        "lon": -60.27848080962127,
        "alt_km": 1308.4897019931022,
        "timestamp": "2025-12-08T13:49:32.190535+00:00",
        "meta_object_name": "COSMOS 2251 DEB",
        "meta_object_id": "1993-036AMD",
        "meta_epoch": "2025-12-02T16:49:03.133344",
        "meta_mean_motion": 13.52074918,
        "meta_eccentricity": 0.04051153,
        "meta_inclination": 74.0205,
        "meta_ra_of_asc_node": 318.5607,
        "meta_arg_of_pericenter": 196.0051,
        "meta_mean_anomaly": 342.734,
        "meta_ephemeris_type": 0,
        "meta_classification_type": "U",
        "meta_norad_cat_id": 35586,
        "meta_element_set_no": 999,
        "meta_rev_at_epoch": 60246,
        "meta_bstar": 0.00045411914,
        "meta_mean_motion_dot": 4.79e-06,
        "meta_mean_motion_ddot": 0,
        "tle_line1": "1 35586U 93036AMD 25336.70073071  .00000479  00000+0  45412-3 0  9990",
        "tle_line2": "2 35586  74.0205 318.5607 0405115 196.0051 342.7340 13.52074918602466"
      },
      "geometry": {
        "type": "Point",
        "coordinates": [
          -60.27848080962127,
          -29.7626960831974
        ]
      }
    },
    {
      "type": "Feature",
      "properties": {
        "norad_id": 35587,
        "name": "COSMOS 2251 DEB",
        "group": "cosmos-2251-debris",
        "lat": -24.258004909938588,
        "lon": -106.03652452643627,
        "alt_km": 614.4624834554825,
        "timestamp": "2025-12-08T13:49:32.190545+00:00",
        "meta_object_name": "COSMOS 2251 DEB",
        "meta_object_id": "1993-036AME",
        "meta_epoch": "2025-12-06T23:21:29.867040",
        "meta_mean_motion": 14.71485933,
        "meta_eccentricity": 0.01027904,
        "meta_inclination": 74.0056,
        "meta_ra_of_asc_node": 69.6568,
        "meta_arg_of_pericenter": 258.589,
        "meta_mean_anomaly": 100.3722,
        "meta_ephemeris_type": 0,
        "meta_classification_type": "U",
        "meta_norad_cat_id": 35587,
        "meta_element_set_no": 999,
        "meta_rev_at_epoch": 66261,
        "meta_bstar": 0.00050810605,
        "meta_mean_motion_dot": 3.388e-05,
        "meta_mean_motion_ddot": 0,
        "tle_line1": "1 35587U 93036AME 25340.97326235  .00003388  00000+0  50811-3 0  9999",
        "tle_line2": "2 35587  74.0056  69.6568 0102790 258.5890 100.3722 14.71485933662619"
      },
      "geometry": {
        "type": "Point",
        "coordinates": [
          -106.03652452643627,
          -24.258004909938588
        ]
      }
    },
    {
      "type": "Feature",
      "properties": {
        "norad_id": 35593,
        "name": "COSMOS 2251 DEB",
        "group": "cosmos-2251-debris",
        "lat": -51.43592440405956,
        "lon": -85.02410023201753,
        "alt_km": 737.5743886605205,
        "timestamp": "2025-12-08T13:49:32.190556+00:00",
        "meta_object_name": "COSMOS 2251 DEB",
        "meta_object_id": "1993-036AML",
        "meta_epoch": "2025-12-08T03:58:14.126592",
        "meta_mean_motion": 14.25563446,
        "meta_eccentricity": 0.01052845,
        "meta_inclination": 74.0864,
        "meta_ra_of_asc_node": 296.6825,
        "meta_arg_of_pericenter": 304.2239,
        "meta_mean_anomaly": 54.8967,
        "meta_ephemeris_type": 0,
        "meta_classification_type": "U",
        "meta_norad_cat_id": 35593,
        "meta_element_set_no": 999,
        "meta_rev_at_epoch": 85000,
        "meta_bstar": 0.0017783786,
        "meta_mean_motion_dot": 4.436e-05,
        "meta_mean_motion_ddot": 0,
        "tle_line1": "1 35593U 93036AML 25342.16544128  .00004436  00000+0  17784-2 0  9998",
        "tle_line2": "2 35593  74.0864 296.6825 0105284 304.2239  54.8967 14.25563446850009"
      },
      "geometry": {
        "type": "Point",
        "coordinates": [
          -85.02410023201753,
          -51.43592440405956
        ]
      }
    }
  ]
}